[{"OBJECT_NAME":"ONEWEB-0303","OBJECT_ID":"2021-083B","EPOCH":"2026-03-09T19:55:07.688640","MEAN_MOTION":13.18685946,"ECCENTRICITY":0.00017097,"INCLINATION":87.9252,"RA_OF_ASC_NODE":355.1915,"ARG_OF_PERICENTER":71.9228,"MEAN_ANOMALY":288.2091,"EPHEMERIS_TYPE":0,"CLASSIFICATION_TYPE":"U","NORAD_CAT_ID":49187,"ELEMENT_SET_NO":999,"REV_AT_EPOCH":21688,"BSTAR":-0.00010909583,"MEAN_MOTION_DOT":-3.0e-7,"MEAN_MOTION_DDOT":0},{"OBJECT_NAME":"SL-14 DEB","OBJECT_ID":"1991-056R","EPOCH":"2026-03-09T12:05:06.471168","MEAN_MOTION":13.01968847,"ECCENTRICITY":0.00798304,"INCLINATION":82.5509,"RA_OF_ASC_NODE":251.8456,"ARG_OF_PERICENTER":276.3056,"MEAN_ANOMALY":82.897,"EPHEMERIS_TYPE":0,"CLASSIFICATION_TYPE":"U","NORAD_CAT_ID":45279,"ELEMENT_SET_NO":999,"REV_AT_EPOCH":28766,"BSTAR":0.0022455483,"MEAN_MOTION_DOT":7.16e-6,"MEAN_MOTION_DDOT":0}]
